{
    "links": {
        "self": "http://www.neowsapp.com/rest/v1/neo/3754317?api_key=iIulBulltgU6a56xZRHN4H3l9WmuAYTsLGpBGhQ2"
    },
    "id": "3754317",
    "neo_reference_id": "3754317",
    "name": "(2016 LV51)",
    "designation": "2016 LV51",
    "nasa_jpl_url": "http://ssd.jpl.nasa.gov/sbdb.cgi?sstr=3754317",
    "absolute_magnitude_h": 25.3,
    "estimated_diameter": {
        "kilometers": {
            "estimated_diameter_min": 0.0231502122,
            "estimated_diameter_max": 0.0517654482
        },
        "meters": {
            "estimated_diameter_min": 23.150212221,
            "estimated_diameter_max": 51.7654482198
        },
        "miles": {
            "estimated_diameter_min": 0.0143848705,
            "estimated_diameter_max": 0.0321655483
        },
        "feet": {
            "estimated_diameter_min": 75.9521422633,
            "estimated_diameter_max": 169.8341531374
        }
    },
    "is_potentially_hazardous_asteroid": false,
    "close_approach_data": [
        {
            "close_approach_date": "1900-10-30",
            "close_approach_date_full": "1900-Oct-30 20:22",
            "epoch_date_close_approach": -2182822680000,
            "relative_velocity": {
                "kilometers_per_second": "6.40116205",
                "kilometers_per_hour": "23044.1833799914",
                "miles_per_hour": "14318.7593896396"
            },
            "miss_distance": {
                "astronomical": "0.2470779302",
                "lunar": "96.1133148478",
                "kilometers": "36962332.081928674",
                "miles": "22967328.1465527412"
            },
            "orbiting_body": "Earth"
        },
        {
            "close_approach_date": "2008-06-01",
            "close_approach_date_full": "2008-Jun-01 10:08",
            "epoch_date_close_approach": 1212314880000,
            "relative_velocity": {
                "kilometers_per_second": "20.0019571453",
                "kilometers_per_hour": "72007.0457230951",
                "miles_per_hour": "44742.377938331"
            },
            "miss_distance": {
                "astronomical": "0.3407289419",
                "lunar": "132.5435583991",
                "kilometers": "50972323.955593753",
                "miles": "31672733.4218416714"
            },
            "orbiting_body": "Earth"
        },
        {
            "close_approach_date": "2016-06-19",
            "close_approach_date_full": "2016-Jun-19 23:50",
            "epoch_date_close_approach": 1466380200000,
            "relative_velocity": {
                "kilometers_per_second": "10.8923747218",
                "kilometers_per_hour": "39212.5489983266",
                "miles_per_hour": "24365.1530150991"
            },
            "miss_distance": {
                "astronomical": "0.0442209079",
                "lunar": "17.2019331731",
                "kilometers": "6615353.631306173",
                "miles": "4110590.1358962674"
            },
            "orbiting_body": "Earth"
        },
        {
            "close_approach_date": "2016-12-06",
            "close_approach_date_full": "2016-Dec-06 00:49",
            "epoch_date_close_approach": 1480985340000,
            "relative_velocity": {
                "kilometers_per_second": "8.7708677875",
                "kilometers_per_hour": "31575.1240348589",
                "miles_per_hour": "19619.5541537711"
            },
            "miss_distance": {
                "astronomical": "0.4745018764",
                "lunar": "184.5812299196",
                "kilometers": "70984470.020443268",
                "miles": "44107704.3692743784"
            },
            "orbiting_body": "Earth"
        },
        {
            "close_approach_date": "2024-10-29",
            "close_approach_date_full": "2024-Oct-29 14:38",
            "epoch_date_close_approach": 1730212680000,
            "relative_velocity": {
                "kilometers_per_second": "6.8645237915",
                "kilometers_per_hour": "24712.2856494221",
                "miles_per_hour": "15355.2532692201"
            },
            "miss_distance": {
                "astronomical": "0.216421697",
                "lunar": "84.188040133",
                "kilometers": "32376224.89298539",
                "miles": "20117653.280522782"
            },
            "orbiting_body": "Earth"
        }
    ],
    "orbital_data": {
        "orbit_id": "3",
        "orbit_determination_date": "2017-04-06 08:25:16",
        "first_observation_date": "2016-06-15",
        "last_observation_date": "2016-06-19",
        "data_arc_in_days": 4,
        "observations_used": 40,
        "orbit_uncertainty": "8",
        "minimum_orbit_intersection": ".0434869",
        "jupiter_tisserand_invariant": "4.725",
        "epoch_osculation": "2457556.5",
        "eccentricity": ".3589083362291408",
        "semi_major_axis": "1.374413725675363",
        "inclination": "11.84521664778621",
        "ascending_node_longitude": "258.7268773409732",
        "orbital_period": "588.538194087843",
        "perihelion_distance": ".8811251821027235",
        "perihelion_argument": "74.99549228910341",
        "aphelion_distance": "1.867702269248002",
        "perihelion_time": "2457612.168197868664",
        "mean_anomaly": "325.9485969916034",
        "mean_motion": ".6116850250610375",
        "equinox": "J2000",
        "orbit_class": {
            "orbit_class_type": "APO",
            "orbit_class_description": "Near-Earth asteroid orbits which cross the Earth’s orbit similar to that of 1862 Apollo",
            "orbit_class_range": "a (semi-major axis) > 1.0 AU; q (perihelion) < 1.017 AU"
        }
    },
    "is_sentry_object": false
}